#cP2017 11 15  0  0  0.00000000      96 ORBIT IGS14 HLM  IGS
## 1975 259200.00000000   900.00000000 58072 0.0000000000000
+   32   G01G02G03G04G05G06G07G08G09G10G11G12G13G14G15G16G17
+        G18G19G20G21G22G23G24G25G26G27G28G29G30G31G32  0  0
+          0  0  0  0  0  0  0  0  0  0  0  0  0  0  0  0  0
+          0  0  0  0  0  0  0  0  0  0  0  0  0  0  0  0  0
+          0  0  0  0  0  0  0  0  0  0  0  0  0  0  0  0  0
++         2  2  2  0  2  2  2  2  1  2  2  2  2  2  2  2  2
++         3  2  2  2  2  2  2  2  2  2  2  2  2  2  1  0  0
++         0  0  0  0  0  0  0  0  0  0  0  0  0  0  0  0  0
++         0  0  0  0  0  0  0  0  0  0  0  0  0  0  0  0  0
++         0  0  0  0  0  0  0  0  0  0  0  0  0  0  0  0  0
%c G  cc GPS ccc cccc cccc cccc cccc ccccc ccccc ccccc ccccc
%c cc cc ccc ccc cccc cccc cccc cccc ccccc ccccc ccccc ccccc
%f  1.2500000  1.025000000  0.00000000000  0.000000000000000
%f  0.0000000  0.000000000  0.00000000000  0.000000000000000
%i    0    0    0    0      0      0      0      0         0
%i    0    0    0    0      0      0      0      0         0
/* RAPID ORBIT COMBINATION FROM WEIGHTED AVERAGE OF:        
/* cod emr esa gfz jpl ngs sio usn whu                      
/* REFERENCED TO IGS TIME (IGST) AND TO WEIGHTED MEAN POLE: 
/* PCV:IGS14_1973 OL/AL:FES2004  NONE     Y  ORB:CMB CLK:CMB
*  2017 11 15 22 30  0.00000000
PG01 -17661.231558  -5372.046569  19062.983862    -10.603803  5  6  3  84       
PG02  14382.828638  22475.443418   -925.463853    279.933044  9  6  6 119       
PG03 -18611.575587   6312.140938  17824.176738    -41.527454  7  6  4  85       
PG04 -11577.949281 -13435.560354 -20105.431134 999999.999999
PG05   9059.548988  13982.397857 -20743.411512    -22.629501  8  6  7 107       
PG06   5609.930414  24150.587805   9535.901226    409.935798  9  5  3 117       
PG07 -11190.446197  10792.952283 -21280.473602    279.041267  7  6  6 122       
PG08 -24646.658505  -6004.219070  -8007.430770    -80.746457  5  9  6 110       
PG09 -21434.761633   8814.243288 -13014.890263    471.975601  2  5  5 112       
PG10   9616.073939 -23894.048522   6206.331015    111.463951  4  4  6 119       
PG11 -22690.578805  -6285.902776  11609.352490   -726.558831  8  6  8 107       
PG12  17418.063750  -2119.274009  19709.783772    364.661074  7  6  6 103       
PG13  19410.994214  12248.077667 -13465.162691    -93.984882  8  6  5 122       
PG14  -3764.347333 -15509.139986  21533.429171    -88.636136  3  7  1 103       
PG15  25837.763176   3483.074067  -6244.325810   -357.175034  8  7  5 117       
PG16  -8024.161820 -13185.414353 -21679.825252     36.357653  8  5  6 122       
PG17  -6691.527894  14104.617675  21841.962791   -144.333984  8  5  4  86       
PG18  15095.126922 -21261.924947  -3928.621986    632.709529  7 10  4 102       
PG19   2055.124803  14893.135361  21595.173862   -475.413002  8  8  5 103       
PG20  17799.058511  -2896.504789 -19644.576220    492.867679  9  6  4 118       
PG21   8590.421744 -14074.650592 -20022.327813   -461.766928  2  6  6  69       
PG22 -16829.448988  -1865.229678  20705.347289   -190.330466  6  7  3  98       
PG23 -26569.911215   1517.880657  -2834.429543   -218.683236  8  7  7 106       
PG24  18858.047246   7719.639092  17080.672686    -42.274295  6  5  6 112       
PG25  18534.256031 -14652.249736  11753.217427   -490.160449  5  5  5 106       
PG26    -89.570108 -21363.475199 -15704.990591   -360.868749  7  6  8  86       
PG27 -15997.751933 -12249.719101 -17480.696450    347.996885  9  9  5 126       
PG28 -13377.900703  22671.927177   4217.357989    662.862219  7  4  4  70       
PG29  24547.692699  -4009.499883  -9314.931805    537.790822  7  8  6  93       
PG30  -4174.165398  19945.101999 -16949.962072    127.717274  8  2  6 119       
PG31  -6291.173966 -24452.954090   7586.386099    161.873774  3  4  8  92       
PG32   3932.433034 -15057.564993  21540.353821   -523.590348  2  6  5  91       
*  2017 11 15 22 45  0.00000000
PG01 -18607.636448  -7257.613006  17509.318229    -10.605967  6  6  3  91       
PG02  14158.881479  22623.220599   1887.043085    279.924161  8  6  6 128       
PG03 -17666.048126   4398.796812  19302.428428    -41.522501  7  6  5  84       
PG04  -9287.331992 -13719.326978 -21040.056295 999999.999999
PG05   7851.095397  15950.840926 -19770.256907    -22.628447  9  5  8 102       
PG06   4814.695791  23189.907720  12033.858078    409.937361  9  6  3 112       
PG07 -12442.870430   8627.930476 -21606.923394    279.036556  7  6  6  96       
PG08 -23581.761845  -6222.668060 -10598.957279    -80.747630  5  9  6 130       
PG09 -22787.414719   8601.640349 -10636.660548    471.979841  3  5  6 102       
PG10  10116.088438 -24241.829008   3415.227078    111.470840  4  4  6 120       
PG11 -23495.459645  -7354.985853   9242.958156   -726.560713  8  7  8 112       
PG12  16190.309978   -110.832279  20845.408849    364.659585  7  6  6  98       
PG13  17757.415162  12227.564823 -15614.644618    -93.985097  8  5  6 126       
PG14  -1344.472199 -15352.772627  21919.514024    -88.637063  4  7  1 101       
PG15  25028.425854   3838.967260  -8834.763162   -357.174900  8  7  5 118       
PG16  -6607.586886 -15131.977087 -20830.117521     36.357541  7  5  7 118       
PG17  -9059.272867  13938.982573  21053.956431   -144.331621  8  5  5  85       
PG18  15113.188620 -20492.751996  -6633.690591    632.709781  7 10  5  99       
PG19   -478.767712  14679.806213  21848.296926   -475.411259  8  8  5 112       
PG20  16973.057929   -765.473655 -20562.844645    492.868672  9  5  3 128       
PG21  10008.451522 -12013.257979 -20676.587284   -461.764089  3  6  6  86       
PG22 -15812.887935  -3998.633012  21201.682676   -190.342503  6  7  3  74       
PG23 -26763.960581   1250.807591    -42.806478   -218.683255  9  7  7 108       
PG24  19690.973993   9392.966377  15236.131394    -42.273985  6  6  6 115       
PG25  17942.494857 -13253.571038  14090.262972   -490.166062  5  5  5 116       
PG26    904.117738 -22736.354554 -13603.151790   -360.856431  7  6  8  92       
PG27 -13928.453236 -12365.995699 -19081.454095    348.000032  9  8  5 124       
PG28 -13660.719906  22775.115860   1333.130060    662.865160  6  5  4  86       
PG29  25443.711372  -3778.095350  -6610.596853    537.786384  7  8  7 100       
PG30  -5253.621306  18203.423418 -18547.073345    127.714831  8  4  6 114       
PG31  -5586.906687 -23671.553866  10221.947235    161.871539  3  4  8  72       
PG32   6361.994305 -15024.243246  20969.496761   -523.593093  3  6  5  89       
*  2017 11 15 23  0  0.00000000
PG01 -19547.075671  -8925.449441  15654.361794    -10.608144  6  6  3  77       
PG02  13760.550787  22527.822145   4667.822464    279.915391  8  6  6 129       
PG03 -16754.517549   2306.308017  20447.526597    -41.517562  6  6  5  89       
PG04  -6926.712495 -14137.198456 -21621.448095 999999.999999
PG05   6796.619979  17862.673880 -18457.982764    -22.627388  9  5  9  97       
PG06   3819.037545  22047.376870  14324.853776    409.938826  9  6  3 113       
PG07 -13810.972678   6520.599732 -21554.125522    279.031931  8  6  6  96       
PG08 -22247.263601  -6518.740224 -13008.724286    -80.748890  5 10  6 113       
PG09 -23870.941575   8438.235667  -8075.737760    471.984099  3  5  6  96       
PG10  10455.370718 -24327.934732    564.870934    111.477720  5  4  7 117       
PG11 -24112.219739  -8231.748071   6712.643266   -726.561756  8  7  8 125       
PG12  15022.458530   2056.533595  21615.574116    364.658085  7  6  6 111       
PG13  15878.601025  12282.564159 -17497.237177    -93.985368  9  5  6 130       
PG14   1104.282748 -15324.827229  21938.246108    -88.637815  4  7  2 112       
PG15  23959.529781   4270.557138 -11277.483776   -357.175175  8  7  5 117       
PG16  -5360.449126 -17058.586665 -19622.821225     36.357512  6  5  8 119       
PG17 -11327.603368  13904.929389  19914.315296   -144.329543  8  6  6  97       
PG18  15047.794042 -19445.492686  -9221.293574    632.710050  8 10  6 118       
PG19  -3025.280662  14603.851381  21715.411670   -475.409331  8  8  5 118       
PG20  16218.963499   1479.140171 -21131.782075    492.869976 10  5  2 122       
PG21  11553.508949  -9975.740818 -20948.271653   -461.760897  3  6  6  86       
PG22 -14883.205869  -6209.715301  21340.880728   -190.353547  5  7  3  76       
PG23 -26659.586002    973.994110   2749.557306   -218.683625  9  8  7 120       
PG24  20476.284633  10839.429516  13130.845602    -42.273836  7  6  6 116       
PG25  17313.242658 -11598.704238  16179.948189   -490.171651  5  6  5 111       
PG26   1717.225201 -23931.823471 -11265.892973   -360.844047  7  6  8 103       
PG27 -11705.413793 -12607.019612 -20357.703023    348.003163  9  8  6 130       
PG28 -13771.682148  22611.073687  -1573.898781    662.868024  5  5  4  62       
PG29  26037.849009  -3595.765652  -3792.463649    537.781830  7  9  7  83       
PG30  -6499.164342  16377.569367 -19823.341615    127.712367  7  5  6  99       
PG31  -4691.969705 -22680.916317  12678.032272    161.869475  4  4  8  68       
PG32   8705.936472 -15110.713772  20038.186386   -523.595860  4  6  6  96       
EOF
